
# Worst residual: 4.27 km
# MJD 60646.000000 (2024 Dec  2  0:00)
TESS = 2018-038A = NORAD 43435
1 43435U 18038A   24337.49919926  .00000000  00000-0  00000-0 0 22453
2 43435 052.9889 057.5333 4348370 117.3549 292.9799 00.07385184    00

# Worst residual: 12.89 km
# MJD 60647.000000 (2024 Dec  3  0:00)
TESS = 2018-038A = NORAD 43435
1 43435U 18038A   24338.49919926  .00000000  00000-0  00000-0 0 22454
2 43435 053.0173 057.4397 4346325 117.5582 319.4417 00.07406407    08

# Worst residual: 26.23 km
# MJD 60648.000000 (2024 Dec  4  0:00)
TESS = 2018-038A = NORAD 43435
1 43435U 18038A   24339.49919926  .00000000  00000-0  00000-0 0 22455
2 43435 053.0794 057.3902 4297013 118.1617 345.7070 00.07519355    07

# Worst residual: 33.10 km
# MJD 60649.000000 (2024 Dec  5  0:00)
TESS = 2018-038A = NORAD 43435
1 43435U 18038A   24340.49919926  .00000000  00000-0  00000-0 0 22457
2 43435 053.0986 057.3856 4233473 117.8897 013.0607 00.07635713    02

# Worst residual: 28.24 km
# MJD 60650.000000 (2024 Dec  6  0:00)
TESS = 2018-038A = NORAD 43435
1 43435U 18038A   24341.49919926  .00000000  00000-0  00000-0 0 22458
2 43435 053.0576 057.3048 4259777 117.5984 040.5104 00.07614561    04

# Worst residual: 16.05 km
# MJD 60651.000000 (2024 Dec  7  0:00)
TESS = 2018-038A = NORAD 43435
1 43435U 18038A   24342.49919926  .00000000  00000-0  00000-0 0 22459
2 43435 053.0313 057.1596 4288829 118.0697 067.1728 00.07548815    01

# Worst residual: 9.05 km
# MJD 60652.000000 (2024 Dec  8  0:00)
TESS = 2018-038A = NORAD 43435
1 43435U 18038A   24343.49919926  .00000000  00000-0  00000-0 0 22450
2 43435 053.0472 057.0226 4283147 118.5641 093.8012 00.07505927    07

# Worst residual: 11.73 km
# MJD 60653.000000 (2024 Dec  9  0:00)
TESS = 2018-038A = NORAD 43435
1 43435U 18038A   24344.49919926  .00000000  00000-0  00000-0 0 22451
2 43435 053.0887 056.9579 4261398 118.6984 120.8357 00.07488510    02

# Worst residual: 15.20 km
# MJD 60654.000000 (2024 Dec 10  0:00)
TESS = 2018-038A = NORAD 43435
1 43435U 18038A   24345.49919926  .00000000  00000-0  00000-0 0 22452
2 43435 053.1214 056.9615 4241893 118.4821 148.3153 00.07485017    02

# Worst residual: 20.99 km
# MJD 60655.000000 (2024 Dec 11  0:00)
TESS = 2018-038A = NORAD 43435
1 43435U 18038A   24346.49919926  .00000000  00000-0  00000-0 0 22453
2 43435 053.1317 056.9844 4230898 118.0532 176.1308 00.07483591    04

# Worst residual: 23.52 km
# MJD 60656.000000 (2024 Dec 12  0:00)
TESS = 2018-038A = NORAD 43435
1 43435U 18038A   24347.49919926  .00000000  00000-0  00000-0 0 22454
2 43435 053.1281 056.9854 4225395 117.5110 204.1583 00.07472707    01

# Worst residual: 26.77 km
# MJD 60657.000000 (2024 Dec 13  0:00)
TESS = 2018-038A = NORAD 43435
1 43435U 18038A   24348.49919926  .00000000  00000-0  00000-0 0 22455
2 43435 053.1275 056.9429 4217571 116.8294 232.3243 00.07438263    09

# Worst residual: 31.16 km
# MJD 60658.000000 (2024 Dec 14  0:00)
TESS = 2018-038A = NORAD 43435
1 43435U 18038A   24349.49919926  .00000000  00000-0  00000-0 0 22456
2 43435 053.1259 056.8706 4210596 115.9080 260.5408 00.07370791    08

# Worst residual: 33.48 km
# MJD 60659.000000 (2024 Dec 15  0:00)
TESS = 2018-038A = NORAD 43435
1 43435U 18038A   24350.49919926  .00000000  00000-0  00000-0 0 22458
2 43435 053.1192 056.7697 4217051 114.7023 288.6206 00.07262296    06

# Worst residual: 20.53 km
# MJD 60660.000000 (2024 Dec 16  0:00)
TESS = 2018-038A = NORAD 43435
1 43435U 18038A   24351.49919926  .00000000  00000-0  00000-0 0 22459
2 43435 053.0894 056.6358 4249311 113.7005 315.8574 00.07146542    06

# Worst residual: 32.22 km
# MJD 60661.000000 (2024 Dec 17  0:00)
TESS = 2018-038A = NORAD 43435
1 43435U 18038A   24352.49919926  .00000000  00000-0  00000-0 0 22450
2 43435 053.0901 056.5113 4239529 114.1427 341.4147 00.07191522    05

# Worst residual: 23.61 km
# MJD 60662.000000 (2024 Dec 18  0:00)
TESS = 2018-038A = NORAD 43435
1 43435U 18038A   24353.49919926  .00000000  00000-0  00000-0 0 22451
2 43435 053.1106 056.5314 4144720 114.6529 007.4041 00.07369912    04

# Worst residual: 15.69 km
# MJD 60663.000000 (2024 Dec 19  0:00)
TESS = 2018-038A = NORAD 43435
1 43435U 18038A   24354.49919926  .00000000  00000-0  00000-0 0 22452
2 43435 053.0421 056.4933 4131986 114.5974 034.1065 00.07394825    06

# Worst residual: 15.52 km
# MJD 60664.000000 (2024 Dec 20  0:00)
TESS = 2018-038A = NORAD 43435
1 43435U 18038A   24355.49919926  .00000000  00000-0  00000-0 0 22453
2 43435 052.9926 056.3522 4156741 115.0831 060.0838 00.07337537    04

# Worst residual: 13.04 km
# MJD 60665.000000 (2024 Dec 21  0:00)
TESS = 2018-038A = NORAD 43435
1 43435U 18038A   24356.49919926  .00000000  00000-0  00000-0 0 22454
2 43435 052.9950 056.2040 4163936 115.6941 085.7242 00.07285429    02

# Worst residual: 6.96 km
# MJD 60666.000000 (2024 Dec 22  0:00)
TESS = 2018-038A = NORAD 43435
1 43435U 18038A   24357.49919926  .00000000  00000-0  00000-0 0 22455
2 43435 053.0273 056.0897 4155510 116.0930 111.4663 00.07254041    02

# Worst residual: 6.45 km
# MJD 60667.000000 (2024 Dec 23  0:00)
TESS = 2018-038A = NORAD 43435
1 43435U 18038A   24358.49919926  .00000000  00000-0  00000-0 0 22456
2 43435 053.0670 056.0095 4141321 116.2354 137.4600 00.07237740    06

# Worst residual: 6.64 km
# MJD 60668.000000 (2024 Dec 24  0:00)
TESS = 2018-038A = NORAD 43435
1 43435U 18038A   24359.49919926  .00000000  00000-0  00000-0 0 22457
2 43435 053.1023 055.9482 4125960 116.1792 163.7052 00.07227366    09

# Worst residual: 10.09 km
# MJD 60669.000000 (2024 Dec 25  0:00)
TESS = 2018-038A = NORAD 43435
1 43435U 18038A   24360.49919926  .00000000  00000-0  00000-0 0 22459
2 43435 053.1303 055.8917 4109204 115.9736 190.1520 00.07214279    03

# Worst residual: 12.64 km
# MJD 60670.000000 (2024 Dec 26  0:00)
TESS = 2018-038A = NORAD 43435
1 43435U 18038A   24361.49919926  .00000000  00000-0  00000-0 0 22450
2 43435 053.1517 055.8307 4089643 115.6200 216.7466 00.07191267    05

# Worst residual: 15.74 km
# MJD 60671.000000 (2024 Dec 27  0:00)
TESS = 2018-038A = NORAD 43435
1 43435U 18038A   24362.49919926  .00000000  00000-0  00000-0 0 22451
2 43435 053.1614 055.7662 4070160 115.0812 243.4448 00.07153647    00

# Worst residual: 18.91 km
# MJD 60672.000000 (2024 Dec 28  0:00)
TESS = 2018-038A = NORAD 43435
1 43435U 18038A   24363.49919926  .00000000  00000-0  00000-0 0 22452
2 43435 053.1668 055.6852 4059114 114.3792 270.1339 00.07100079    01

# Worst residual: 15.45 km
# MJD 60673.000000 (2024 Dec 29  0:00)
TESS = 2018-038A = NORAD 43435
1 43435U 18038A   24364.49919926  .00000000  00000-0  00000-0 0 22453
2 43435 053.1748 055.5864 4071797 113.7892 296.5025 00.07044571    05

# Worst residual: 19.02 km
# MJD 60674.000000 (2024 Dec 30  0:00)
TESS = 2018-038A = NORAD 43435
1 43435U 18038A   24365.49919926  .00000000  00000-0  00000-0 0 22454
2 43435 053.2150 055.4929 4098237 113.9497 322.0078 00.07036441    05

# Worst residual: 37.10 km
# MJD 60675.000000 (2024 Dec 31  0:00)
TESS = 2018-038A = NORAD 43435
1 43435U 18038A   24366.49919926  .00000000  00000-0  00000-0 0 22455
2 43435 053.2790 055.4927 4056428 114.8945 346.8777 00.07162725    02
